     2.01           GLONASS NAV DATA                        RINEX VERSION / TYPE
CCRINEXG V1.4 UX    CDDIS               17-MAY-20 19:33     PGM / RUN BY / DATE
IGS BROADCAST EPHEMERIS FILE                                COMMENT
teqc  2019Feb25     UNAVCO Archive Ops  20200517  0:15:     COMMENT
  2020     5    16   -0.465661287308D-09                    CORR TO SYSTEM TIME
    18                                                      LEAP SECONDS
                                                            END OF HEADER
 1 20  5 16  0 15  0.0 0.615818426013D-04 0.000000000000D+00 0.000000000000D+00
    0.692037744141D+04-0.802021026611D-01 0.931322574616D-09 0.000000000000D+00
   -0.195624306641D+05 0.203045272827D+01-0.186264514923D-08 0.100000000000D+01
    0.148312026367D+05 0.271844768524D+01-0.000000000000D+00 0.000000000000D+00
